0 TBA - TO BE ASSIGNED
1 52205U 77047V   22102.14526863  .00044927  43489-6  12804-2 0  9998
2 52205  62.0978  75.6748 7506630  50.5401 354.5964  2.04285527 27434
0 COSMOS 917 DEB
1 52205U 77047V   22103.12408826  .00043532 -52716-6  11727-2 0  9993
2 52205  62.0981  75.5032 7506268  50.5645 354.5821  2.04367512 27459
0 COSMOS 917 DEB
1 52205U 77047V   22104.10249555  .00040379 -14121-5  10253-2 0  9990
2 52205  62.0981  75.3339 7505921  50.5842 354.5622  2.04450572 27471
0 COSMOS 917 DEB
1 52205U 77047V   22105.08050443  .00045945 -20478-5  11474-2 0  9996
2 52205  62.0970  75.1623 7505385  50.6159 354.5355  2.04534824 27497
0 COSMOS 917 DEB
1 52205U 77047V   22106.05805448  .00046478 -23182-5  11147-2 0  9991
2 52205  62.0962  74.9880 7504965  50.6286 354.5096  2.04633178 27511
0 COSMOS 917 DEB
1 52205U 77047V   22107.03519107  .00046095 -21710-5  10729-2 0  9999
2 52205  62.0937  74.8108 7504625  50.6313 354.4866  2.04719158 27538
0 COSMOS 917 DEB
1 52205U 77047V   22108.01193899  .00045115 -16746-5  10208-2 0  9991
2 52205  62.0942  74.6383 7504367  50.6535 354.4664  2.04800517 27554
0 COSMOS 917 DEB
1 52205U 77047V   22109.47627499  .00052656 -61585-6  11286-2 0  9997
2 52205  62.0972  74.3840 7503985  50.6987 354.4487  2.04941180 27586
0 COSMOS 917 DEB
1 52205U 77047V   22111.42709906  .00064020  47379-6  11049-2 0  9998
2 52205  62.0953  74.0370 7503295  50.7425 354.4516  2.05156846 27628
0 COSMOS 917 DEB
1 52205U 77047V   22111.91446336  .00063621  58603-6  10433-2 0  9991
2 52205  62.0942  73.9495 7503009  50.7540 354.4541  2.05220295 27632
0 COSMOS 917 DEB
1 52205U 77047V   22113.37559636  .00084104  50623-6  11965-2 0  9995
2 52205  62.0897  73.6871 7501889  50.7862 354.4582  2.05431751 27666
0 COSMOS 917 DEB
1 52205U 77047V   22114.34886948  .00099487  20621-6  13197-2 0  9996
2 52205  62.0858  73.5081 7501007  50.8137 354.4533  2.05575780 27682
0 COSMOS 917 DEB
1 52205U 77047V   22115.32147981  .00068284 -13290-6  85116-3 0  9999
2 52205  62.0826  73.3320 7500290  50.8381 354.4420  2.05698982 27703
0 COSMOS 917 DEB
1 52205U 77047V   22115.80754735  .00068896 -26451-6  84112-3 0  9990
2 52205  62.0821  73.2459 7499845  50.8488 354.4337  2.05764085 27717
0 COSMOS 917 DEB
1 52205U 77047V   22116.29345037  .00086444 -34385-6  10107-2 0  9991
2 52205  62.0805  73.1577 7499404  50.8614 354.4235  2.05840957 27722
0 COSMOS 917 DEB
1 52205U 77047V   22117.26477089  .00081550 -30926-6  88658-3 0  9999
2 52205  62.0793  72.9851 7498665  50.8837 354.4009  2.05973229 27745
0 COSMOS 917 DEB
1 52205U 77047V   22118.23542040  .00088035  16726-7  88398-3 0  9995
2 52205  62.0778  72.8116 7497830  50.9057 354.3764  2.06122908 27769
0 COSMOS 917 DEB
1 52205U 77047V   22119.20534312  .00095436  55406-6  90048-3 0  9991
2 52205  62.0766  72.6396 7496830  50.9292 354.3526  2.06284033 27780
0 COSMOS 917 DEB
1 52205U 77047V   22119.69001895  .00081911  84271-6  74854-3 0  9991
2 52205  62.0760  72.5540 7496387  50.9396 354.3425  2.06359210 27795
0 COSMOS 917 DEB
1 52205U 77047V   22120.17450676  .00094554  11095-5  83685-3 0  9993
2 52205  62.0746  72.4668 7495838  50.9511 354.3331  2.06445962 27806
0 COSMOS 917 DEB
1 52205U 77047V   22121.14286965  .00092099  14476-5  76909-3 0  9998
2 52205  62.0726  72.2937 7494711  50.9734 354.3190  2.06620338 27824
0 COSMOS 917 DEB
1 52205U 77047V   22122.11044685  .00092902  13926-5  73671-3 0  9992
2 52205  62.0709  72.1207 7493577  50.9951 354.3113  2.06790117 27844
0 COSMOS 917 DEB
1 52205U 77047V   22123.07723438  .00094672  93577-6  71711-3 0  9998
2 52205  62.0696  71.9475 7492387  51.0178 354.3092  2.06962238 27867
0 COSMOS 917 DEB
1 52205U 77047V   22124.04311534  .00102794  24137-6  74615-3 0  9993
2 52205  62.0695  71.7764 7490913  51.0397 354.3111  2.07168099 27889
0 COSMOS 917 DEB
1 52205U 77047V   22125.00795719  .00117876 -38043-6  82561-3 0  9999
2 52205  62.0685  71.6013 7489160  51.0589 354.3154  2.07406626 27900
0 COSMOS 917 DEB
1 52205U 77047V   22125.97167508  .00167601 -64672-6  11245-2 0  9992
2 52205  62.0678  71.4259 7487232  51.0705 354.3212  2.07675000 27921
0 COSMOS 917 DEB
1 52205U 77047V   22127.41503079  .00152833 -31885-6  97470-3 0  9996
2 52205  62.0692  71.1674 7484446  51.1077 354.3249  2.08056394 27955
0 COSMOS 917 DEB
1 52205U 77047V   22127.89554760  .00143166 -12407-6  88833-3 0  9992
2 52205  62.0694  71.0806 7483606  51.1161 354.3252  2.08180225 27960
0 COSMOS 917 DEB
1 52205U 77047V   22128.37576922  .00165454  59438-7  10010-2 0  9990
2 52205  62.0685  70.9929 7482640  51.1277 354.3236  2.08317419 27979
0 COSMOS 917 DEB
1 52205U 77047V   22128.85565509  .00117191  20332-6  69840-3 0  9993
2 52205  62.0684  70.9063 7481797  51.1344 354.3217  2.08434426 27982
0 COSMOS 917 DEB
1 52205U 77047V   22129.33523867  .00149727  31359-6  86976-3 0  9998
2 52205  62.0677  70.8191 7480710  51.1451 354.3170  2.08585395 27999
0 COSMOS 917 DEB
1 52205U 77047V   22129.81449732  .00112129  38328-6  63369-3 0  9999
2 52205  62.0669  70.7319 7479884  51.1531 354.3121  2.08708407 28000
0 COSMOS 917 DEB
1 52205U 77047V   22130.29344395  .00146274  44683-6  80515-3 0  9993
2 52205  62.0658  70.6446 7478798  51.1651 354.3043  2.08859037 28014
0 COSMOS 917 DEB
1 52205U 77047V   22131.25037534  .00126202  58300-6  66158-3 0  9991
2 52205  62.0636  70.4690 7476955  51.1869 354.2863  2.09120978 28030
0 COSMOS 917 DEB
1 52205U 77047V   22132.20597106  .00150423  73980-6  74818-3 0  9998
2 52205  62.0611  70.2930 7474709  51.2071 354.2633  2.09434055 28050
0 COSMOS 917 DEB
1 52205U 77047V   22133.16017299  .00178911  65105-6  86352-3 0  9992
2 52205  62.0581  70.1154 7472243  51.2348 354.2372  2.09758575 28079
0 COSMOS 917 DEB
1 52205U 77047V   22134.11300556  .00167495  11207-6  77987-3 0  9992
2 52205  62.0575  69.9437 7470097  51.2565 354.2144  2.10047565 28099
0 COSMOS 917 DEB
1 52205U 77047V   22135.06444059  .00185434 -72170-6  82158-3 0  9990
2 52205  62.0555  69.7696 7467692  51.2793 354.1952  2.10379250 28110
0 COSMOS 917 DEB
1 52205U 77047V   22136.01433759  .00201961 -12629-5  84026-3 0  9993
2 52205  62.0557  69.5962 7465219  51.3013 354.1825  2.10732056 28133
0 COSMOS 917 DEB
1 52205U 77047V   22136.96249016  .00234645 -95590-6  90579-3 0  9992
2 52205  62.0567  69.4238 7462305  51.3246 354.1756  2.11153144 28151
0 COSMOS 917 DEB
1 52205U 77047V   22137.90856038  .00296733  28898-6  10412-2 0  9994
2 52205  62.0577  69.2485 7458747  51.3442 354.1734  2.11673261 28172
0 COSMOS 917 DEB
1 52205U 77047V   22138.38072725  .00332869  16365-5  11397-2 0  9999
2 52205  62.0567  69.1594 7456706  51.3549 354.1729  2.11947839 28182
0 COSMOS 917 DEB
1 52205U 77047V   22139.32307463  .00375369  14346-5  10777-2 0  9994
2 52205  62.0560  68.9809 7452812  51.3778 354.1733  2.12573954 28201
0 COSMOS 917 DEB
1 52205U 77047V   22139.79315561  .00383679  12371-5  12191-2 0  9994
2 52205  62.0525  68.8921 7449460  51.3955 354.1674  2.12907314 28214
0 COSMOS 917 DEB
1 52205U 77047V   22141.19880489  .00402142  43511-6  10739-2 0  9991
2 52205  62.0475  68.6229 7442041  51.4276 354.1553  2.13973924 28242
0 COSMOS 917 DEB
1 52205U 77047V   22143.06150273  .00353921 -51983-6  97992-3 0  9990
2 52205  62.0427  68.2712 7429936  51.4778 354.1087  2.15452396 28280
0 COSMOS 917 DEB
1 52205U 77047V   22143.98806346  .00381547 -73731-6  10204-2 0  9990
2 52205  62.0425  68.0945 7424124  51.5008 354.0785  2.16208221 28309
0 COSMOS 917 DEB
1 52205U 77047V   22144.91145272  .00259867 -74053-6  65432-3 0  9999
2 52205  62.0429  67.9165 7419466  51.5180 354.0505  2.16842795 28321
0 COSMOS 917 DEB
1 52205U 77047V   22145.37203192  .00410198 -66439-6  10246-2 0  9993
2 52205  62.0427  67.8285 7415893  51.5288 354.0320  2.17298026 28339
0 COSMOS 917 DEB
1 52205U 77047V   22145.83184594  .00418875 -54583-6  10312-2 0  9999
2 52205  62.0428  67.7397 7413086  51.5432 354.0160  2.17662819 28344
0 COSMOS 917 DEB
1 52205U 77047V   22145.83184737  .00414944 -54583-6  97848-3 0  9991
2 52205  62.0417  67.7383 7413386  51.5440 354.0170  2.17663057 28345
0 COSMOS 917 DEB
1 52205U 77047V   22146.74904717  .00442760 -20412-6  10517-2 0  9998
2 52205  62.0418  67.5641 7406988  51.5634 353.9857  2.18460017 28360
0 COSMOS 917 DEB
1 52205U 77047V   22147.20633202  .00489545  40180-8  11305-2 0  9991
2 52205  62.0394  67.4737 7403706  51.5760 353.9711  2.18897530 28377
0 COSMOS 917 DEB
1 52205U 77047V   22148.11829841  .00558033  45545-6  12358-2 0  9994
2 52205  62.0383  67.2972 7397001  51.6004 353.9452  2.19778562 28394
0 COSMOS 917 DEB
1 52205U 77047V   22149.02590908  .00675088  90480-6  14682-2 0  9994
2 52205  62.0383  67.1212 7387858  51.6252 353.9162  2.20946418 28414
0 COSMOS 917 DEB
1 52205U 77047V   22149.92834966  .00839302  12996-5  18104-2 0  9997
2 52205  62.0365  66.9452 7376828  51.6521 353.8854  2.22345371 28433
0 COSMOS 917 DEB
1 52205U 77047V   22151.71536940  .01148750  22944-5  24156-2 0  9997
2 52205  62.0353  66.5886 7351076  51.7007 353.8211  2.25628860 28476
0 COSMOS 917 DEB
1 52205U 77047V   22154.76191374  .01841032  36478-5  26982-2 0  9992
2 52205  62.0379  65.9716 7283209  51.7415 353.6342  2.34654310 28544
0 COSMOS 917 DEB
1 52205U 77047V   22156.02808434  .01880134  25018-5  30188-2 0  9992
2 52205  62.0379  65.7020 7246583  51.7895 353.5102  2.39284996 28576
0 COSMOS 917 DEB
1 52205U 77047V   22156.85883484  .01942547  15613-5  30073-2 0  9991
2 52205  62.0405  65.5262 7223463  51.8134 353.4279  2.42321427 28592
0 COSMOS 917 DEB
1 52205U 77047V   22158.08415653  .01921003  17209-6  27806-2 0  9995
2 52205  62.0384  65.2530 7186795  51.8547 353.2889  2.47174552 28626
0 COSMOS 917 DEB
1 52205U 77047V   22158.88858786  .02047855 -54843-6  28613-2 0  9999
2 52205  62.0352  65.0695 7163556  51.8863 353.1959  2.50259914 28641
0 COSMOS 917 DEB
1 52205U 77047V   22160.85434310  .02246199 -91104-6  28454-2 0  9998
2 52205  62.0316  64.6124 7101513  51.9377 352.9490  2.58566672 28691
0 COSMOS 917 DEB
1 52205U 77047V   22162.00528788  .02501341 -38495-7  29984-2 0  9997
2 52205  62.0299  64.3345 7068052  51.9691 352.8176  2.63088780 28721
0 COSMOS 917 DEB
1 52205U 77047V   22163.12989285  .03741796  16874-4  41806-2 0  9995
2 52205  62.0324  64.0576 7010311  52.0291 352.5957  2.70926554 28751
0 COSMOS 917 DEB
1 52205U 77047V   22163.85698344  .05561214  47451-5  60756-2 0  9996
2 52205  62.0370  63.8847 6951511  52.0617 352.3736  2.78926086 28770
